[{"OBJECT_NAME":"IRIDIUM 162","OBJECT_ID":"2018-047G","EPOCH":"2026-03-09T16:09:02.112768","MEAN_MOTION":14.43274905,"ECCENTRICITY":0.0002109,"INCLINATION":86.4501,"RA_OF_ASC_NODE":129.9826,"ARG_OF_PERICENTER":95.166,"MEAN_ANOMALY":264.9782,"EPHEMERIS_TYPE":0,"CLASSIFICATION_TYPE":"U","NORAD_CAT_ID":43482,"ELEMENT_SET_NO":999,"REV_AT_EPOCH":41077,"BSTAR":7.0339294e-5,"MEAN_MOTION_DOT":2.57e-6,"MEAN_MOTION_DDOT":0},{"OBJECT_NAME":"SL-8 DEB","OBJECT_ID":"1993-036D","EPOCH":"2026-03-09T22:56:08.534112","MEAN_MOTION":14.41812411,"ECCENTRICITY":0.00100524,"INCLINATION":74.0407,"RA_OF_ASC_NODE":131.7086,"ARG_OF_PERICENTER":349.1411,"MEAN_ANOMALY":66.1051,"EPHEMERIS_TYPE":0,"CLASSIFICATION_TYPE":"U","NORAD_CAT_ID":25028,"ELEMENT_SET_NO":999,"REV_AT_EPOCH":58959,"BSTAR":0.00035343206,"MEAN_MOTION_DOT":1.129e-5,"MEAN_MOTION_DDOT":0}]
